OBJECT_NAME,OBJECT_ID,EPOCH,MEAN_MOTION,ECCENTRICITY,INCLINATION,RA_OF_ASC_NODE,ARG_OF_PERICENTER,MEAN_ANOMALY,EPHEMERIS_TYPE,CLASSIFICATION_TYPE,NORAD_CAT_ID,ELEMENT_SET_NO,REV_AT_EPOCH,BSTAR,MEAN_MOTION_DOT,MEAN_MOTION_DDOT
NIGHTJAR,2024-149BV,2026-05-14T03:30:45.270720,14.98807909,.00014759,97.6836,211.3294,147.7221,212.4092,0,U,60535,999,13777,.15554861E-3,.1817E-4,0
LEMUR-2-MARHISYAM,2024-149BW,2026-05-14T06:51:00.796896,15.10520718,.00016437,97.6882,217.0277,183.2973,176.8246,0,U,60536,999,9536,.41070107E-3,.6705E-4,0
ICEYE-X43,2024-149BZ,2026-05-14T03:14:08.186208,14.99750463,.0004607,97.6771,211.5700,195.2093,164.8993,0,U,60539,999,9501,.13983878E-3,.1669E-4,0
QPS-SAR-8 (AMATERU-IV),2024-149CC,2026-05-14T03:05:02.748192,15.03771216,.00025961,97.6664,213.5747,194.3472,165.7681,0,U,60542,999,9515,.19151824E-3,.2569E-4,0
ARCTIC WEATHER SATELLITE,2024-149CD,2026-05-14T04:02:30.244704,14.89796710,.00017384,97.6807,205.6038,177.2604,182.8624,0,U,60543,999,9423,.5433808E-4,.468E-5,0
HAWK-10B,2024-149CF,2026-05-14T03:13:48.649440,14.96400732,.00050103,97.6814,210.0222,192.2142,167.8959,0,U,60545,999,9489,.71523023E-4,.753E-5,0
ICEYE-X39,2024-149CG,2026-05-14T06:01:28.000992,14.99711271,.00023379,97.6821,211.7359,176.6634,183.4606,0,U,60546,999,9503,.13727492E-3,.1635E-4,0
ICEYE-X33,2024-149CJ,2026-05-14T04:02:29.048064,15.00901823,.00007024,97.7176,213.5174,333.0969,27.0218,0,U,60548,999,9510,.25089492E-3,.3134E-4,0
ICEYE-X40,2024-149CK,2026-05-14T03:59:45.504960,14.97832107,.00049373,97.6817,211.2106,167.4357,192.6989,0,U,60549,999,9498,.15342175E-3,.1746E-4,0
BRO-14,2024-149CM,2026-05-14T06:53:21.015456,14.96110164,.00062391,97.6875,210.6737,197.6085,162.4921,0,U,60551,999,9492,.101256E-3,.1082E-4,0
UM5-RIBAT,2024-149CQ,2026-05-14T03:20:59.598816,15.00874618,.00032183,97.6659,212.3990,115.4564,244.6993,0,U,60554,999,9508,.13463033E-3,.1653E-4,0
UM5-EOSAT,2024-149CR,2026-05-14T04:22:19.250400,15.01280013,.00068215,97.6657,213.3435,215.6052,144.4718,0,U,60555,999,9511,.14938016E-3,.1861E-4,0
LASARSAT,2024-247Q,2026-05-14T07:05:32.423424,15.44206327,.00048327,44.9738,92.3362,129.6361,230.4955,0,U,62391,999,7807,.47806398E-3,.22146E-3,0
CROCUBE,2024-247T,2026-05-13T22:38:51.804096,15.45786748,.0004487,44.9715,92.1524,130.7673,229.3607,0,U,62394,999,7804,.55089E-3,.27024E-3,0
TEVEL2-4,2025-052D,2026-05-13T05:12:31.830912,15.33358313,.00016546,97.3947,29.5787,172.7980,187.3286,0,U,63213,999,6475,.33272172E-3,.10651E-3,0
TEVEL2-5,2025-052E,2026-05-14T06:40:24.071232,15.33225860,.00017478,97.3949,30.5973,170.1471,189.9805,0,U,63214,999,6491,.38098574E-3,.12159E-3,0
TEVEL2-6,2025-052F,2026-05-14T05:22:59.350656,15.33187265,.00018198,97.3950,30.5284,174.0630,186.0634,0,U,63215,999,6490,.36577534E-3,.11655E-3,0
TEVEL2-1,2025-052H,2026-05-14T05:48:33.601248,15.32696559,.00012652,97.3923,30.2093,189.7444,170.3773,0,U,63217,999,6489,.36338999E-3,.11401E-3,0
TEVEL2-3,2025-052J,2026-05-14T05:42:28.881792,15.32745490,.00012333,97.3926,30.2230,191.3858,168.7356,0,U,63218,999,6489,.36682577E-3,.11527E-3,0
TEVEL2-2,2025-052K,2026-05-14T05:49:14.480544,15.32703860,.00012313,97.3924,30.2115,193.1651,166.9559,0,U,63219,999,6489,.37595109E-3,.11801E-3,0
