{"fetched_at":"2026-05-15T02:58:15Z","count":8847,"tles":[{"name":"HAWK-10B","line1":"1 60545U 24149CF  26134.13459085  .00000753  00000+0  71523-4 0  9997","line2":"2 60545  97.6814 210.0222 0005010 192.2142 167.8959 14.96400732 94894","category":"Other"},{"name":"TEVEL2-3","line1":"1 63218U 25052J   26134.23783428  .00011527  00000+0  36683-3 0  9991","line2":"2 63218  97.3926  30.2230 0001233 191.3858 168.7356 15.32745490 64895","category":"Other"},{"name":"CROCUBE","line1":"1 62394U 24247T   26133.94365514  .00027024  00000+0  55089-3 0  9999","line2":"2 62394  44.9715  92.1524 0004487 130.7673 229.3607 15.45786748 78042","category":"Other"},{"name":"ARCTIC WEATHER SATELLITE","line1":"1 60543U 24149CD  26134.16840561  .00000468  00000+0  54338-4 0  9999","line2":"2 60543  97.6807 205.6038 0001738 177.2604 182.8624 14.89796710 94238","category":"Other"},{"name":"TEVEL2-1","line1":"1 63217U 25052H   26134.24205557  .00011401  00000+0  36339-3 0  9992","line2":"2 63217  97.3923  30.2093 0001265 189.7444 170.3773 15.32696559 64898","category":"Other"},{"name":"TEVEL2-2","line1":"1 63219U 25052K   26134.24252871  .00011801  00000+0  37595-3 0  9994","line2":"2 63219  97.3924  30.2115 0001231 193.1651 166.9559 15.32703860 64895","category":"Other"},{"name":"TEVEL2-4","line1":"1 63213U 25052D   26133.21703508  .00010651  00000+0  33272-3 0  9992","line2":"2 63213  97.3947  29.5787 0001654 172.7980 187.3286 15.33358313 64756","category":"Other"},{"name":"UM5-EOSAT","line1":"1 60555U 24149CR  26134.18216725  .00001861  00000+0  14938-3 0  9992","line2":"2 60555  97.6657 213.3435 0006821 215.6052 144.4718 15.01280013 95118","category":"Other"},{"name":"TEVEL2-5","line1":"1 63214U 25052E   26134.27805638  .00012159  00000+0  38099-3 0  9994","line2":"2 63214  97.3949  30.5973 0001747 170.1471 189.9805 15.33225860 64911","category":"Other"},{"name":"TEVEL2-6","line1":"1 63215U 25052F   26134.22429804  .00011655  00000+0  36578-3 0  9997","line2":"2 63215  97.3950  30.5284 0001819 174.0630 186.0634 15.33187265 64902","category":"Other"},{"name":"ICEYE-X40","line1":"1 60549U 24149CK  26134.16649890  .00001746  00000+0  15342-3 0  9998","line2":"2 60549  97.6817 211.2106 0004937 167.4357 192.6989 14.97832107 94989","category":"Other"},{"name":"ICEYE-X33","line1":"1 60548U 24149CJ  26134.16839176  .00003134  00000+0  25089-3 0  9997","line2":"2 60548  97.7176 213.5174 0000702 333.0969  27.0218 15.00901823 95101","category":"Other"},{"name":"UM5-RIBAT","line1":"1 60554U 24149CQ  26134.13957869  .00001653  00000+0  13463-3 0  9998","line2":"2 60554  97.6659 212.3990 0003218 115.4564 244.6993 15.00874618 95089","category":"Other"},{"name":"ICEYE-X43","line1":"1 60539U 24149BZ  26134.13481697  .00001669  00000+0  13984-3 0  9997","line2":"2 60539  97.6771 211.5700 0004607 195.2093 164.8993 14.99750463 95017","category":"Other"},{"name":"LASARSAT","line1":"1 62391U 24247Q   26134.29551416  .00022146  00000+0  47806-3 0  9991","line2":"2 62391  44.9738  92.3362 0004832 129.6361 230.4955 15.44206327 78072","category":"Other"},{"name":"BRO-14","line1":"1 60551U 24149CM  26134.28704879  .00001082  00000+0  10126-3 0  9991","line2":"2 60551  97.6875 210.6737 0006239 197.6085 162.4921 14.96110164 94925","category":"Other"},{"name":"LEMUR-2-MARHISYAM","line1":"1 60536U 24149BW  26134.28542589  .00006705  00000+0  41070-3 0  9991","line2":"2 60536  97.6882 217.0277 0001643 183.2973 176.8246 15.10520718 95362","category":"Other"},{"name":"NIGHTJAR","line1":"1 60535U 24149BV  26134.14635730  .00001817  00000+0  15555-3 0  9994","line2":"2 60535  97.6836 211.3294 0001475 147.7221 212.4092 14.98807909137773","category":"Other"},{"name":"QPS-SAR-8 (AMATERU-IV)","line1":"1 60542U 24149CC  26134.12850403  .00002569  00000+0  19152-3 0  9998","line2":"2 60542  97.6664 213.5747 0002596 194.3472 165.7681 15.03771216 95155","category":"Other"},{"name":"ICEYE-X39","line1":"1 60546U 24149CG  26134.25101853  .00001635  00000+0  13727-3 0  9999","line2":"2 60546  97.6821 211.7359 0002337 176.6634 183.4606 14.99711271 95039","category":"Other"}]}